{"type": "FeatureCollection", "features": [ {"type": "Feature", "properties": {"norad_id": 43648, "name": "BEIDOU-3 M15 (C34)", "group": "gnss", "lat": 38.767997427603625, "lon": 91.22587089784948, "alt_km": 21526.926124059133, "timestamp": "2025-12-11T22:43:47.511125+00:00", "meta": {"OBJECT_NAME": "BEIDOU-3 M15 (C34)", "OBJECT_ID": "2018-078B", "EPOCH": "2025-12-09T14:32:59.144640", "MEAN_MOTION": 1.86231871, "ECCENTRICITY": 0.0003622, "INCLINATION": 54.2606, "RA_OF_ASC_NODE": 306.6314, "ARG_OF_PERICENTER": 18.0065, "MEAN_ANOMALY": 341.9965, "EPHEMERIS_TYPE": 0, "CLASSIFICATION_TYPE": "U", "NORAD_CAT_ID": 43648, "ELEMENT_SET_NO": 999, "REV_AT_EPOCH": 4864, "BSTAR": 0, "MEAN_MOTION_DOT": -7.7e-07, "MEAN_MOTION_DDOT": 0}, "tle": {"line1": "1 43648U 18078B   25343.60624010 -.00000077  00000+0  00000+0 0  9998", "line2": "2 43648  54.2606 306.6314 0003622  18.0065 341.9965  1.86231871 48642"}}, "geometry": {"type": "Point", "coordinates": [91.22587089784948, 38.767997427603625]}}, {"type": "Feature", "properties": {"norad_id": 43683, "name": "BEIDOU-3 G1 (C59)", "group": "gnss", "lat": 2.562059420780618, "lon": -158.06227258950275, "alt_km": 35779.89169349204, "timestamp": "2025-12-11T22:43:47.511143+00:00", "meta": {"OBJECT_NAME": "BEIDOU-3 G1 (C59)", "OBJECT_ID": "2018-085A", "EPOCH": "2025-12-11T14:10:41.232000", "MEAN_MOTION": 1.00270999, "ECCENTRICITY": 0.00017705, "INCLINATION": 2.6051, "RA_OF_ASC_NODE": 103.012, "ARG_OF_PERICENTER": 64.3053, "MEAN_ANOMALY": 265.9746, "EPHEMERIS_TYPE": 0, "CLASSIFICATION_TYPE": "U", "NORAD_CAT_ID": 43683, "ELEMENT_SET_NO": 999, "REV_AT_EPOCH": 2617, "BSTAR": 0, "MEAN_MOTION_DOT": -2.7e-06, "MEAN_MOTION_DDOT": 0}, "tle": {"line1": "1 43683U 18085A   25345.59075500 -.00000270  00000+0  00000+0 0  9994", "line2": "2 43683   2.6051 103.0120 0001770  64.3053 265.9746  1.00270999 26175"}}, "geometry": {"type": "Point", "coordinates": [-158.06227258950275, 2.562059420780618]}}, {"type": "Feature", "properties": {"norad_id": 43687, "name": "COSMOS 2529 (757)", "group": "gnss", "lat": 0.14420174001239436, "lon": -161.01221337592372, "alt_km": 19135.55393714641, "timestamp": "2025-12-11T22:43:47.511162+00:00", "meta": {"OBJECT_NAME": "COSMOS 2529 (757)", "OBJECT_ID": "2018-086A", "EPOCH": "2025-12-11T00:12:01.414944", "MEAN_MOTION": 2.13101894, "ECCENTRICITY": 0.00072871, "INCLINATION": 64.2919, "RA_OF_ASC_NODE": 198.9469, "ARG_OF_PERICENTER": 254.1536, "MEAN_ANOMALY": 105.8359, "EPHEMERIS_TYPE": 0, "CLASSIFICATION_TYPE": "U", "NORAD_CAT_ID": 43687, "ELEMENT_SET_NO": 999, "REV_AT_EPOCH": 5527, "BSTAR": 0, "MEAN_MOTION_DOT": 5e-07, "MEAN_MOTION_DDOT": 0}, "tle": {"line1": "1 43687U 18086A   25345.00834971  .00000050  00000+0  00000+0 0  9995", "line2": "2 43687  64.2919 198.9469 0007287 254.1536 105.8359  2.13101894 55276"}}, "geometry": {"type": "Point", "coordinates": [-161.01221337592372, 0.14420174001239436]}}, {"type": "Feature", "properties": {"norad_id": 43706, "name": "BEIDOU-3 M17 (C36)", "group": "gnss", "lat": 18.587162995596685, "lon": -157.2836254220253, "alt_km": 21521.822032793236, "timestamp": "2025-12-11T22:43:47.511179+00:00", "meta": {"OBJECT_NAME": "BEIDOU-3 M17 (C36)", "OBJECT_ID": "2018-093A", "EPOCH": "2025-12-11T15:30:48.559104", "MEAN_MOTION": 1.86228399, "ECCENTRICITY": 0.00062348, "INCLINATION": 54.1726, "RA_OF_ASC_NODE": 188.6587, "ARG_OF_PERICENTER": 307.4017, "MEAN_ANOMALY": 234.1514, "EPHEMERIS_TYPE": 0, "CLASSIFICATION_TYPE": "U", "NORAD_CAT_ID": 43706, "ELEMENT_SET_NO": 999, "REV_AT_EPOCH": 4804, "BSTAR": 0, "MEAN_MOTION_DOT": 7.1e-07, "MEAN_MOTION_DDOT": 0}, "tle": {"line1": "1 43706U 18093A   25345.64639536  .00000071  00000+0  00000+0 0  9998", "line2": "2 43706  54.1726 188.6587 0006234 307.4017 234.1514  1.86228399 48041"}}, "geometry": {"type": "Point", "coordinates": [-157.2836254220253, 18.587162995596685]}}, {"type": "Feature", "properties": {"norad_id": 43707, "name": "BEIDOU-3 M18 (C37)", "group": "gnss", "lat": 46.724352277524, "lon": -41.47007891132251, "alt_km": 21532.744302464518, "timestamp": "2025-12-11T22:43:47.511197+00:00", "meta": {"OBJECT_NAME": "BEIDOU-3 M18 (C37)", "OBJECT_ID": "2018-093B", "EPOCH": "2025-12-09T02:08:32.306784", "MEAN_MOTION": 1.86226655, "ECCENTRICITY": 0.00062934, "INCLINATION": 54.1729, "RA_OF_ASC_NODE": 188.7377, "ARG_OF_PERICENTER": 351.6926, "MEAN_ANOMALY": 8.358, "EPHEMERIS_TYPE": 0, "CLASSIFICATION_TYPE": "U", "NORAD_CAT_ID": 43707, "ELEMENT_SET_NO": 999, "REV_AT_EPOCH": 4799, "BSTAR": 0, "MEAN_MOTION_DOT": 4.9e-07, "MEAN_MOTION_DDOT": 0}, "tle": {"line1": "1 43707U 18093B   25343.08926281  .00000049  00000+0  00000+0 0  9996", "line2": "2 43707  54.1729 188.7377 0006293 351.6926   8.3580  1.86226655 47998"}}, "geometry": {"type": "Point", "coordinates": [-41.47007891132251, 46.724352277524]}}, {"type": "Feature", "properties": {"norad_id": 43873, "name": "GPS BIII-1  (PRN 04)", "group": "gnss", "lat": -50.10189454495946, "lon": 44.51740577428235, "alt_km": 20199.884683678218, "timestamp": "2025-12-11T22:43:47.511217+00:00", "meta": {"OBJECT_NAME": "GPS BIII-1  (PRN 04)", "OBJECT_ID": "2018-109A", "EPOCH": "2025-12-11T13:23:14.841888", "MEAN_MOTION": 2.00553563, "ECCENTRICITY": 0.00372884, "INCLINATION": 55.5667, "RA_OF_ASC_NODE": 99.5933, "ARG_OF_PERICENTER": 194.9209, "MEAN_ANOMALY": 175.1233, "EPHEMERIS_TYPE": 0, "CLASSIFICATION_TYPE": "U", "NORAD_CAT_ID": 43873, "ELEMENT_SET_NO": 999, "REV_AT_EPOCH": 5131, "BSTAR": 0, "MEAN_MOTION_DOT": 4e-08, "MEAN_MOTION_DDOT": 0}, "tle": {"line1": "1 43873U 18109A   25345.55781067  .00000004  00000+0  00000+0 0  9994", "line2": "2 43873  55.5667  99.5933 0037288 194.9209 175.1233  2.00553563 51312"}}, "geometry": {"type": "Point", "coordinates": [44.51740577428235, -50.10189454495946]}}, {"type": "Feature", "properties": {"norad_id": 44204, "name": "BEIDOU-3 IGSO-1 (C38)", "group": "gnss", "lat": 36.9792607115354, "lon": -167.9268123831107, "alt_km": 35782.068032447554, "timestamp": "2025-12-11T22:43:47.511249+00:00", "meta": {"OBJECT_NAME": "BEIDOU-3 IGSO-1 (C38)", "OBJECT_ID": "2019-023A", "EPOCH": "2025-11-19T14:15:02.708640", "MEAN_MOTION": 1.00252177, "ECCENTRICITY": 0.0026966, "INCLINATION": 58.4003, "RA_OF_ASC_NODE": 39.8168, "ARG_OF_PERICENTER": 221.2202, "MEAN_ANOMALY": 126.9723, "EPHEMERIS_TYPE": 0, "CLASSIFICATION_TYPE": "U", "NORAD_CAT_ID": 44204, "ELEMENT_SET_NO": 999, "REV_AT_EPOCH": 510, "BSTAR": 0, "MEAN_MOTION_DOT": -2.26e-06, "MEAN_MOTION_DDOT": 0}, "tle": {"line1": "1 44204U 19023A   25323.59378135 -.00000226  00000+0  00000+0 0  9994", "line2": "2 44204  58.4003  39.8168 0026966 221.2202 126.9723  1.00252177  5102"}}, "geometry": {"type": "Point", "coordinates": [-167.9268123831107, 36.9792607115354]}}, {"type": "Feature", "properties": {"norad_id": 44231, "name": "BEIDOU-2 G8 (C01)", "group": "gnss", "lat": 1.2286239045808787, "lon": -153.71991993863858, "alt_km": 35807.19291562148, "timestamp": "2025-12-11T22:43:47.511275+00:00", "meta": {"OBJECT_NAME": "BEIDOU-2 G8 (C01)", "OBJECT_ID": "2019-027A", "EPOCH": "2025-12-11T14:11:56.112288", "MEAN_MOTION": 1.00268068, "ECCENTRICITY": 0.00086595, "INCLINATION": 1.6594, "RA_OF_ASC_NODE": 74.6983, "ARG_OF_PERICENTER": 255.4391, "MEAN_ANOMALY": 107.9058, "EPHEMERIS_TYPE": 0, "CLASSIFICATION_TYPE": "U", "NORAD_CAT_ID": 44231, "ELEMENT_SET_NO": 999, "REV_AT_EPOCH": 2420, "BSTAR": 0, "MEAN_MOTION_DOT": -2.41e-06, "MEAN_MOTION_DDOT": 0}, "tle": {"line1": "1 44231U 19027A   25345.59162167 -.00000241  00000+0  00000+0 0  9995", "line2": "2 44231   1.6594  74.6983 0008659 255.4391 107.9058  1.00268068 24204"}}, "geometry": {"type": "Point", "coordinates": [-153.71991993863858, 1.2286239045808787]}}, {"type": "Feature", "properties": {"norad_id": 44299, "name": "COSMOS 2534 (758)", "group": "gnss", "lat": 40.01530007852601, "lon": -4.849553511156139, "alt_km": 19144.896971041242, "timestamp": "2025-12-11T22:43:47.511292+00:00", "meta": {"OBJECT_NAME": "COSMOS 2534 (758)", "OBJECT_ID": "2019-030A", "EPOCH": "2025-12-10T14:34:24.563136", "MEAN_MOTION": 2.13102261, "ECCENTRICITY": 0.0008999, "INCLINATION": 64.3653, "RA_OF_ASC_NODE": 198.9649, "ARG_OF_PERICENTER": 283.4628, "MEAN_ANOMALY": 263.2195, "EPHEMERIS_TYPE": 0, "CLASSIFICATION_TYPE": "U", "NORAD_CAT_ID": 44299, "ELEMENT_SET_NO": 999, "REV_AT_EPOCH": 5090, "BSTAR": 0, "MEAN_MOTION_DOT": 4.7e-07, "MEAN_MOTION_DDOT": 0}, "tle": {"line1": "1 44299U 19030A   25344.60722874  .00000047  00000+0  00000+0 0  9994", "line2": "2 44299  64.3653 198.9649 0008999 283.4628 263.2195  2.13102261 50901"}}, "geometry": {"type": "Point", "coordinates": [-4.849553511156139, 40.01530007852601]}}, {"type": "Feature", "properties": {"norad_id": 44337, "name": "BEIDOU-3 IGSO-2 (C39)", "group": "gnss", "lat": 17.004930422987687, "lon": 172.78027204708803, "alt_km": 35941.951408078356, "timestamp": "2025-12-11T22:43:47.511311+00:00", "meta": {"OBJECT_NAME": "BEIDOU-3 IGSO-2 (C39)", "OBJECT_ID": "2019-035A", "EPOCH": "2025-12-10T21:20:38.716800", "MEAN_MOTION": 1.00271557, "ECCENTRICITY": 0.00373373, "INCLINATION": 55.2247, "RA_OF_ASC_NODE": 160.5169, "ARG_OF_PERICENTER": 202.3364, "MEAN_ANOMALY": 156.6887, "EPHEMERIS_TYPE": 0, "CLASSIFICATION_TYPE": "U", "NORAD_CAT_ID": 44337, "ELEMENT_SET_NO": 999, "REV_AT_EPOCH": 2377, "BSTAR": 0, "MEAN_MOTION_DOT": -6.6e-07, "MEAN_MOTION_DDOT": 0}, "tle": {"line1": "1 44337U 19035A   25344.88933700 -.00000066  00000+0  00000+0 0  9996", "line2": "2 44337  55.2247 160.5169 0037337 202.3364 156.6887  1.00271557 23777"}}, "geometry": {"type": "Point", "coordinates": [172.78027204708803, 17.004930422987687]}}]}